{
 "generated_at": "2026-07-14T07:10:30Z",
 "sources": [
  {
   "name": "CelesTrak",
   "url": "https://celestrak.org/NORAD/elements/",
   "license": "frei verfügbar; Attribution. Ursprünglich USSPACECOM/Space-Track."
  },
  {
   "name": "GCAT (J. McDowell, planet4589.org)",
   "url": "https://planet4589.org/space/gcat/",
   "license": "CC-BY 4.0"
  }
 ],
 "satellites": [
  {
   "norad": 54743,
   "name": "METEOSAT-12 (MTG-I1)",
   "intl": "2022-170C",
   "group": "weather",
   "gcat": {
    "class": "C",
    "category": "MET",
    "owner": "EUMET",
    "state": "I-EUM"
   },
   "omm": {
    "OBJECT_NAME": "METEOSAT-12 (MTG-I1)",
    "OBJECT_ID": "2022-170C",
    "EPOCH": "2026-07-13T20:18:22.582080",
    "MEAN_MOTION": 1.00267371,
    "ECCENTRICITY": 0.0003776,
    "INCLINATION": 0.7236,
    "RA_OF_ASC_NODE": 19.4807,
    "ARG_OF_PERICENTER": 82.3879,
    "MEAN_ANOMALY": 134.1395,
    "EPHEMERIS_TYPE": 0,
    "CLASSIFICATION_TYPE": "U",
    "NORAD_CAT_ID": 54743,
    "ELEMENT_SET_NO": 999,
    "REV_AT_EPOCH": 1324,
    "BSTAR": 0,
    "MEAN_MOTION_DOT": -1.4e-7,
    "MEAN_MOTION_DDOT": 0
   }
  },
  {
   "norad": 28912,
   "name": "METEOSAT-9 (MSG-2)",
   "intl": "2005-049B",
   "group": "weather",
   "gcat": {
    "class": "C",
    "category": "MET",
    "owner": "EUMET",
    "state": "I-EUM"
   },
   "omm": {
    "OBJECT_NAME": "METEOSAT-9 (MSG-2)",
    "OBJECT_ID": "2005-049B",
    "EPOCH": "2026-07-13T17:06:04.898016",
    "MEAN_MOTION": 1.00271253,
    "ECCENTRICITY": 0.0002102,
    "INCLINATION": 9.4193,
    "RA_OF_ASC_NODE": 53.9017,
    "ARG_OF_PERICENTER": 356.2419,
    "MEAN_ANOMALY": 183.6226,
    "EPHEMERIS_TYPE": 0,
    "CLASSIFICATION_TYPE": "U",
    "NORAD_CAT_ID": 28912,
    "ELEMENT_SET_NO": 999,
    "REV_AT_EPOCH": 726,
    "BSTAR": 0,
    "MEAN_MOTION_DOT": 0.00000113,
    "MEAN_MOTION_DDOT": 0
   }
  },
  {
   "norad": 38771,
   "name": "METOP-B",
   "intl": "2012-049A",
   "group": "weather",
   "gcat": {
    "class": "C",
    "category": "MET",
    "owner": "EUMET",
    "state": "I-EUM"
   },
   "omm": {
    "OBJECT_NAME": "METOP-B",
    "OBJECT_ID": "2012-049A",
    "EPOCH": "2026-07-13T20:49:34.368096",
    "MEAN_MOTION": 14.21446148,
    "ECCENTRICITY": 0.0001073,
    "INCLINATION": 98.6491,
    "RA_OF_ASC_NODE": 245.8328,
    "ARG_OF_PERICENTER": 263.5668,
    "MEAN_ANOMALY": 96.5388,
    "EPHEMERIS_TYPE": 0,
    "CLASSIFICATION_TYPE": "U",
    "NORAD_CAT_ID": 38771,
    "ELEMENT_SET_NO": 999,
    "REV_AT_EPOCH": 71705,
    "BSTAR": 0.000045293,
    "MEAN_MOTION_DOT": 5.6e-7,
    "MEAN_MOTION_DDOT": 0
   }
  },
  {
   "norad": 43689,
   "name": "METOP-C",
   "intl": "2018-087A",
   "group": "weather",
   "gcat": {
    "class": "C",
    "category": "MET",
    "owner": "EUMET",
    "state": "I-EUM"
   },
   "omm": {
    "OBJECT_NAME": "METOP-C",
    "OBJECT_ID": "2018-087A",
    "EPOCH": "2026-07-13T19:33:52.718400",
    "MEAN_MOTION": 14.21518811,
    "ECCENTRICITY": 0.0002215,
    "INCLINATION": 98.6631,
    "RA_OF_ASC_NODE": 253.9302,
    "ARG_OF_PERICENTER": 95.6697,
    "MEAN_ANOMALY": 264.4733,
    "EPHEMERIS_TYPE": 0,
    "CLASSIFICATION_TYPE": "U",
    "NORAD_CAT_ID": 43689,
    "ELEMENT_SET_NO": 999,
    "REV_AT_EPOCH": 39861,
    "BSTAR": 0.000043438,
    "MEAN_MOTION_DOT": 5.2e-7,
    "MEAN_MOTION_DDOT": 0
   }
  },
  {
   "norad": 65159,
   "name": "METOP-SGA1",
   "intl": "2025-172A",
   "group": "weather",
   "gcat": {
    "class": "C",
    "category": "MET",
    "owner": "EUMET",
    "state": "I-EUM"
   },
   "omm": {
    "OBJECT_NAME": "METOP-SGA1",
    "OBJECT_ID": "2025-172A",
    "EPOCH": "2026-07-13T18:40:04.652832",
    "MEAN_MOTION": 14.19819015,
    "ECCENTRICITY": 0.0007151,
    "INCLINATION": 98.6631,
    "RA_OF_ASC_NODE": 253.9432,
    "ARG_OF_PERICENTER": 336.4606,
    "MEAN_ANOMALY": 23.6242,
    "EPHEMERIS_TYPE": 0,
    "CLASSIFICATION_TYPE": "U",
    "NORAD_CAT_ID": 65159,
    "ELEMENT_SET_NO": 999,
    "REV_AT_EPOCH": 4756,
    "BSTAR": 0.000027927,
    "MEAN_MOTION_DOT": 1.6e-7,
    "MEAN_MOTION_DDOT": 0
   }
  },
  {
   "norad": 64899,
   "name": "MICROCARB",
   "intl": "2025-156A",
   "group": "resource",
   "gcat": {
    "class": "C",
    "category": "SCI",
    "owner": "CNES",
    "state": "F"
   },
   "omm": {
    "OBJECT_NAME": "MICROCARB",
    "OBJECT_ID": "2025-156A",
    "EPOCH": "2026-07-13T18:49:10.886592",
    "MEAN_MOTION": 14.72884158,
    "ECCENTRICITY": 0.0017526,
    "INCLINATION": 98.0075,
    "RA_OF_ASC_NODE": 271.5062,
    "ARG_OF_PERICENTER": 175.2277,
    "MEAN_ANOMALY": 184.9101,
    "EPHEMERIS_TYPE": 0,
    "CLASSIFICATION_TYPE": "U",
    "NORAD_CAT_ID": 64899,
    "ELEMENT_SET_NO": 999,
    "REV_AT_EPOCH": 5188,
    "BSTAR": 0.000048328,
    "MEAN_MOTION_DOT": 0.0000026,
    "MEAN_MOTION_DDOT": 0
   }
  },
  {
   "norad": 64723,
   "name": "MTG-S1",
   "intl": "2025-143A",
   "group": "weather",
   "gcat": {
    "class": "C",
    "category": "MET",
    "owner": "EUMET",
    "state": "I-EUM"
   },
   "omm": {
    "OBJECT_NAME": "MTG-S1",
    "OBJECT_ID": "2025-143A",
    "EPOCH": "2026-07-13T20:18:22.582080",
    "MEAN_MOTION": 1.00273221,
    "ECCENTRICITY": 0.0003484,
    "INCLINATION": 0.585,
    "RA_OF_ASC_NODE": 344.7832,
    "ARG_OF_PERICENTER": 261.8262,
    "MEAN_ANOMALY": 349.2858,
    "EPHEMERIS_TYPE": 0,
    "CLASSIFICATION_TYPE": "U",
    "NORAD_CAT_ID": 64723,
    "ELEMENT_SET_NO": 999,
    "REV_AT_EPOCH": 368,
    "BSTAR": 0,
    "MEAN_MOTION_DOT": -1.2e-7,
    "MEAN_MOTION_DDOT": 0
   }
  },
  {
   "norad": 46277,
   "name": "NEMO-HD",
   "intl": "2020-061F",
   "group": "resource",
   "gcat": {
    "class": "A",
    "category": "IMG",
    "owner": "SPSI",
    "state": "SI"
   },
   "omm": {
    "OBJECT_NAME": "NEMO-HD",
    "OBJECT_ID": "2020-061F",
    "EPOCH": "2026-07-13T19:35:30.299424",
    "MEAN_MOTION": 15.45119527,
    "ECCENTRICITY": 0.000098,
    "INCLINATION": 97.191,
    "RA_OF_ASC_NODE": 256.5071,
    "ARG_OF_PERICENTER": 91.9646,
    "MEAN_ANOMALY": 268.1716,
    "EPHEMERIS_TYPE": 0,
    "CLASSIFICATION_TYPE": "U",
    "NORAD_CAT_ID": 46277,
    "ELEMENT_SET_NO": 999,
    "REV_AT_EPOCH": 32609,
    "BSTAR": 0.00014449,
    "MEAN_MOTION_DOT": 0.00006752,
    "MEAN_MOTION_DDOT": 0
   }
  },
  {
   "norad": 65053,
   "name": "NISAR",
   "intl": "2025-163A",
   "group": "sar",
   "gcat": {
    "class": "C",
    "category": "IMG-R",
    "owner": "ISRO/JPL",
    "state": "IN"
   },
   "omm": {
    "OBJECT_NAME": "NISAR",
    "OBJECT_ID": "2025-163A",
    "EPOCH": "2026-07-13T19:13:13.162656",
    "MEAN_MOTION": 14.42505313,
    "ECCENTRICITY": 0.0001152,
    "INCLINATION": 98.406,
    "RA_OF_ASC_NODE": 22.0775,
    "ARG_OF_PERICENTER": 90.7553,
    "MEAN_ANOMALY": 269.3769,
    "EPHEMERIS_TYPE": 0,
    "CLASSIFICATION_TYPE": "U",
    "NORAD_CAT_ID": 65053,
    "ELEMENT_SET_NO": 999,
    "REV_AT_EPOCH": 5022,
    "BSTAR": -0.000011329,
    "MEAN_MOTION_DOT": -8.1e-7,
    "MEAN_MOTION_DDOT": 0
   }
  },
  {
   "norad": 43013,
   "name": "NOAA 20 (JPSS-1)",
   "intl": "2017-073A",
   "group": "weather",
   "gcat": {
    "class": "C",
    "category": "MET",
    "owner": "GSFC/NOAA",
    "state": "US"
   },
   "omm": {
    "OBJECT_NAME": "NOAA 20 (JPSS-1)",
    "OBJECT_ID": "2017-073A",
    "EPOCH": "2026-07-13T20:33:30.327264",
    "MEAN_MOTION": 14.1951629,
    "ECCENTRICITY": 0.0001337,
    "INCLINATION": 98.7773,
    "RA_OF_ASC_NODE": 134.0829,
    "ARG_OF_PERICENTER": 125.7481,
    "MEAN_ANOMALY": 234.3819,
    "EPHEMERIS_TYPE": 0,
    "CLASSIFICATION_TYPE": "U",
    "NORAD_CAT_ID": 43013,
    "ELEMENT_SET_NO": 999,
    "REV_AT_EPOCH": 44825,
    "BSTAR": 0.000027535,
    "MEAN_MOTION_DOT": 1.4e-7,
    "MEAN_MOTION_DDOT": 0
   }
  }
 ]
}
