METEOSAT-9 (MSG-2)      
1 28912U 05049B   26194.71255669  .00000113  00000+0  00000+0 0  9996
2 28912   9.4193  53.9017 0002102 356.2419 183.6226  1.00271253  7264
METOP-B                 
1 38771U 12049A   26194.86775889  .00000056  00000+0  45293-4 0  9999
2 38771  98.6491 245.8328 0001073 263.5668  96.5388 14.21446148717058
NOAA 20 (JPSS-1)        
1 43013U 17073A   26194.85660101  .00000014  00000+0  27535-4 0  9998
2 43013  98.7773 134.0829 0001337 125.7481 234.3819 14.19516290448254
METOP-C                 
1 43689U 18087A   26194.81519350  .00000052  00000+0  43438-4 0  9990
2 43689  98.6631 253.9302 0002215  95.6697 264.4733 14.21518811398619
NEMO-HD                 
1 46277U 20061F   26194.81632291  .00006752  00000+0  14449-3 0  9993
2 46277  97.1910 256.5071 0000980  91.9646 268.1716 15.45119527326094
METEOSAT-12 (MTG-I1)    
1 54743U 22170C   26194.84609470 -.00000014  00000+0  00000+0 0  9999
2 54743   0.7236  19.4807 0003776  82.3879 134.1395  1.00267371 13245
MTG-S1                  
1 64723U 25143A   26194.84609470 -.00000012  00000+0  00000+0 0  9999
2 64723   0.5850 344.7832 0003484 261.8262 349.2858  1.00273221  3683
MICROCARB               
1 64899U 25156A   26194.78415378  .00000260  00000+0  48328-4 0  9996
2 64899  98.0075 271.5062 0017526 175.2277 184.9101 14.72884158 51886
NISAR                   
1 65053U 25163A   26194.80084679 -.00000081  00000+0 -11329-4 0  9990
2 65053  98.4060  22.0775 0001152  90.7553 269.3769 14.42505313 50228
METOP-SGA1              
1 65159U 25172A   26194.77783163  .00000016  00000+0  27927-4 0  9994
2 65159  98.6631 253.9432 0007151 336.4606  23.6242 14.19819015 47561
